[{"OBJECT_NAME":"SHIYAN-21 (SY-21)","OBJECT_ID":"2022-172A","EPOCH":"2026-03-09T23:40:42.191616","MEAN_MOTION":15.28197132,"ECCENTRICITY":0.00206059,"INCLINATION":35.9768,"RA_OF_ASC_NODE":332.6944,"ARG_OF_PERICENTER":79.3933,"MEAN_ANOMALY":280.9121,"EPHEMERIS_TYPE":0,"CLASSIFICATION_TYPE":"U","NORAD_CAT_ID":54752,"ELEMENT_SET_NO":999,"REV_AT_EPOCH":18050,"BSTAR":0.00041186164,"MEAN_MOTION_DOT":0.00011616,"MEAN_MOTION_DDOT":0},{"OBJECT_NAME":"STARLINK-33973","OBJECT_ID":"2025-095E","EPOCH":"2026-03-09T07:18:05.618880","MEAN_MOTION":15.27592782,"ECCENTRICITY":0.00016262,"INCLINATION":42.9999,"RA_OF_ASC_NODE":177.9814,"ARG_OF_PERICENTER":273.2693,"MEAN_ANOMALY":86.7973,"EPHEMERIS_TYPE":0,"CLASSIFICATION_TYPE":"U","NORAD_CAT_ID":63894,"ELEMENT_SET_NO":999,"REV_AT_EPOCH":4773,"BSTAR":0.0014293136,"MEAN_MOTION_DOT":0.00039295,"MEAN_MOTION_DDOT":0}]
